GEOSCAN-3 (RS92S3)
1 64893U 25155T   26198.61814593  .00010002  00000-0  28404-3 0  9995
2 64893  97.4558 168.8749 0008521  81.0382 279.1826 15.36360677 85520
INNOSAT3 (RS92S0)
1 64894U 25155U   26198.62498224  .00023217  00000-0  47752-3 0  9995
2 64894  97.4503 170.9017 0008131  85.0060 275.2117 15.45937866 85662
KNACKSAT-2
1 67683U 98067XZ  26198.24140568  .00034112  00000-0  37883-3 0  9999
2 67683  51.6276 143.0009 0007952 335.1166  24.9444 15.62548905 24978
