OBJECT_NAME,OBJECT_ID,EPOCH,MEAN_MOTION,ECCENTRICITY,INCLINATION,RA_OF_ASC_NODE,ARG_OF_PERICENTER,MEAN_ANOMALY,EPHEMERIS_TYPE,CLASSIFICATION_TYPE,NORAD_CAT_ID,ELEMENT_SET_NO,REV_AT_EPOCH,BSTAR,MEAN_MOTION_DOT,MEAN_MOTION_DDOT
GEOSCAN 3 (RS92S3),2025-155T,2026-07-17T14:50:07.808352,15.36360677,.00085207,97.4558,168.8749,81.0382,279.1826,0,U,64893,999,8552,.28404005E-3,.10002E-3,0
INNOSAT 3 (RS92S0),2025-155U,2026-07-17T14:59:58.465536,15.45937866,.00081313,97.4503,170.9017,85.0060,275.2117,0,U,64894,999,8566,.47751611E-3,.23217E-3,0
KNACKSAT-2,1998-067XZ,2026-07-17T05:47:37.450752,15.62548905,.00079517,51.6276,143.0009,335.1166,24.9444,0,U,67683,999,2497,.37882976E-3,.34112E-3,0
